[{"OBJECT_NAME":"STARLINK-5220","OBJECT_ID":"2022-175C","EPOCH":"2026-03-09T22:29:06.602208","MEAN_MOTION":15.08853424,"ECCENTRICITY":0.0001541,"INCLINATION":53.2179,"RA_OF_ASC_NODE":43.2008,"ARG_OF_PERICENTER":93.5454,"MEAN_ANOMALY":266.5714,"EPHEMERIS_TYPE":0,"CLASSIFICATION_TYPE":"U","NORAD_CAT_ID":54760,"ELEMENT_SET_NO":999,"REV_AT_EPOCH":17995,"BSTAR":-0.00024939043,"MEAN_MOTION_DOT":-4.256e-5,"MEAN_MOTION_DDOT":0},{"OBJECT_NAME":"SL-3 DEB","OBJECT_ID":"1988-032C","EPOCH":"2026-03-09T20:54:05.348736","MEAN_MOTION":15.06065434,"ECCENTRICITY":0.00240661,"INCLINATION":97.6252,"RA_OF_ASC_NODE":41.5186,"ARG_OF_PERICENTER":162.4496,"MEAN_ANOMALY":255.7854,"EPHEMERIS_TYPE":0,"CLASSIFICATION_TYPE":"U","NORAD_CAT_ID":24893,"ELEMENT_SET_NO":999,"REV_AT_EPOCH":81391,"BSTAR":0.00022425917,"MEAN_MOTION_DOT":3.232e-5,"MEAN_MOTION_DDOT":0}]
